[{"OBJECT_NAME":"STARLINK-31908","OBJECT_ID":"2024-100S","EPOCH":"2026-03-09T12:40:43.455936","MEAN_MOTION":15.27569115,"ECCENTRICITY":0.00013484,"INCLINATION":43.0036,"RA_OF_ASC_NODE":119.2585,"ARG_OF_PERICENTER":225.6709,"MEAN_ANOMALY":134.4033,"EPHEMERIS_TYPE":0,"CLASSIFICATION_TYPE":"U","NORAD_CAT_ID":59901,"ELEMENT_SET_NO":999,"REV_AT_EPOCH":10120,"BSTAR":3.4207979e-5,"MEAN_MOTION_DOT":6.79e-6,"MEAN_MOTION_DDOT":0},{"OBJECT_NAME":"FLOCK 4G-23","OBJECT_ID":"2025-009AQ","EPOCH":"2026-03-09T17:11:57.175872","MEAN_MOTION":15.27262579,"ECCENTRICITY":9.048e-5,"INCLINATION":97.3979,"RA_OF_ASC_NODE":150.9478,"ARG_OF_PERICENTER":7.2707,"MEAN_ANOMALY":352.8545,"EPHEMERIS_TYPE":0,"CLASSIFICATION_TYPE":"U","NORAD_CAT_ID":62647,"ELEMENT_SET_NO":999,"REV_AT_EPOCH":6372,"BSTAR":0.00046815788,"MEAN_MOTION_DOT":0.0001244,"MEAN_MOTION_DDOT":0}]
